INTELSAT 23 (IS-23)     
1 38867U 12057A   26180.50667146 -.00000274  00000+0  00000+0 0  9991
2 38867   0.0169  49.0803 0000487  72.4196 285.4962  1.00275385 50071
FM-6                    
1 39360U 13058A   26180.49410471 -.00000005  00000+0  00000+0 0  9999
2 39360   0.0185  47.4169 0001756 132.9990 158.7264  1.00271384 46199
INTELSAT 30 (IS-30)     
1 40271U 14062A   26179.68417422 -.00000139  00000+0  00000+0 0  9998
2 40271   0.0209  45.2858 0001725 346.1200  36.6237  1.00270773  6909
DIRECTV 14              
1 40333U 14078B   26180.42621058 -.00000114  00000+0  00000+0 0  9993
2 40333   0.0142  37.8435 0000195  37.7853 256.0721  1.00270895 42168
DIRECTV 15              
1 40663U 15026A   26180.32308647 -.00000091  00000+0  00000+0 0  9992
2 40663   0.0145  55.7378 0000527  20.9035 214.2061  1.00271419 40587
SKY MEXICO-1            
1 40664U 15026B   26180.50155808  .00000000  00000+0  00000+0 0  9991
2 40664   0.0290  32.1899 0002682  84.9230 262.2382  1.00268970 40573
INTELSAT 34 (IS-34)     
1 40874U 15039A   26179.68564581 -.00000274  00000+0  00000+0 0  9991
2 40874   0.0117 356.8645 0000689  30.4825  80.7691  1.00271838 39751
INTELSAT 31 (IS-31)     
1 41581U 16035A   26180.32308647 -.00000140  00000+0  00000+0 0  9998
2 41581   0.0216 276.6007 0000531 352.7698  29.2974  1.00272183 36801
INTELSAT 36 (IS-36)     
1 41747U 16053A   26180.45942719 -.00000013  00000+0  00000+0 0  9999
2 41747   0.0108   9.8164 0002270 343.4899 158.1366  1.00269105 36084
INTELSAT 32E (IS-32E)   
1 41945U 17007B   26180.50866478  .00000000  00000+0  00000+0 0  9997
2 41945   0.0243  13.6582 0000889 344.8527  59.0307  1.00268307 34342
INTELSAT 35E (IS-35E)   
1 42818U 17041A   26180.51031147  .00000000  00000+0  00000+0 0  9993
2 42818   0.0224  12.9091 0002383  87.0965 326.8023  1.00268005 32939
INTELSAT 37E (IS-37E)   
1 42950U 17059A   26180.44233066  .00000000  00000+0  00000+0 0  9995
2 42950   0.0245  22.4309 0002918  79.1169 317.2147  1.00268749 32182
AZERSPACE 2 (IS-38)     
1 43632U 18074A   26180.52614977  .00000000  00000+0  00000+0 0  9994
2 43632   0.0253  18.5614 0001686  81.5750  51.9960  1.00269730 28572
HORIZONS-3E             
1 43633U 18074B   26180.50947317 -.00000019  00000+0  00000+0 0  9991
2 43633   0.0056 247.6549 0000440  33.6189 348.7386  1.00270868 28468
AT&T T-16               
1 44333U 19034A   26180.32308647 -.00000104  00000+0  00000+0 0  9998
2 44333   0.0131  53.4207 0000404 280.1644 319.2766  1.00268897 25752
INTELSAT 39 (IS-39)     
1 44476U 19049B   26180.24421171  .00000000  00000+0  00000+0 0  9995
2 44476   0.0247  15.7023 0001425 340.6402  70.8522  1.00261592 25242
GALAXY 30 (G-30)        
1 46114U 20056C   26180.48169631  .00000048  00000+0  00000+0 0  9994
2 46114   0.0189  20.1116 0002274  74.9517 230.8958  1.00272508 21413
GALAXY 33 (G-33)        
1 54026U 22128A   26180.48725402  .00000090  00000+0  00000+0 0  9998
2 54026   0.0148   1.9022 0002087  93.4014 224.6766  1.00272442 13867
GALAXY 34 (G-34)        
1 54027U 22128B   26180.48169631  .00000000  00000+0  00000+0 0  9996
2 54027   0.0270   6.1742 0001758  99.8066 215.9922  1.00270902 14037
GALAXY 31 (G-31)        
1 54243U 22153A   26180.49323806  .00000000  00000+0  00000+0 0  9991
2 54243   0.0243  47.0206 0001637  49.4706 237.6440  1.00270323  7253
GALAXY 32 (G-32)        
1 54244U 22153B   26180.28503580 -.00000164  00000+0  00000+0 0  9990
2 54244   0.0113  16.6707 0002394  35.5222 236.7920  1.00277877 13260
GALAXY 35 (G-35)        
1 54741U 22170A   26180.49869808  .00000000  00000+0  00000+0 0  9990
2 54741   0.0226  38.6975 0002213  59.5522 265.7484  1.00268939 13016
GALAXY 36 (G-36)        
1 54742U 22170B   26180.49956476 -.00000174  00000+0  00000+0 0  9992
2 54742   0.0111 312.5732 0002907 139.2890 276.5610  1.00271185 12892
GALAXY 37 (G-37)        
1 57493U 23112A   26180.34003140  .00000059  00000+0  00000+0 0  9991
2 57493   0.0214  64.9923 0002270  31.3346 176.5117  1.00272607 10667
