OBJECT_NAME,OBJECT_ID,EPOCH,MEAN_MOTION,ECCENTRICITY,INCLINATION,RA_OF_ASC_NODE,ARG_OF_PERICENTER,MEAN_ANOMALY,EPHEMERIS_TYPE,CLASSIFICATION_TYPE,NORAD_CAT_ID,ELEMENT_SET_NO,REV_AT_EPOCH,BSTAR,MEAN_MOTION_DOT,MEAN_MOTION_DDOT
INTELSAT 23 (IS-23),2012-057A,2026-06-29T12:09:36.414144,1.00275385,.0000487,0.0169,49.0803,72.4196,285.4962,0,U,38867,999,5007,0,-.274E-5,0
FM-6,2013-058A,2026-06-29T11:51:30.646944,1.00271384,.0001756,0.0185,47.4169,132.9990,158.7264,0,U,39360,999,4619,0,-.5E-7,0
INTELSAT 30 (IS-30),2014-062A,2026-06-28T16:25:12.652608,1.00270773,.0001725,0.0209,45.2858,346.1200,36.6237,0,U,40271,999,690,0,-.139E-5,0
DIRECTV 14,2014-078B,2026-06-29T10:13:44.594112,1.00270895,.0000195,0.0142,37.8435,37.7853,256.0721,0,U,40333,999,4216,0,-.114E-5,0
DIRECTV 15,2015-026A,2026-06-29T07:45:14.671008,1.00271419,.0000527,0.0145,55.7378,20.9035,214.2061,0,U,40663,999,4058,0,-.91E-6,0
SKY MEXICO-1,2015-026B,2026-06-29T12:02:14.618112,1.00268970,.0002682,0.0290,32.1899,84.9230,262.2382,0,U,40664,999,4057,0,0,0
INTELSAT 34 (IS-34),2015-039A,2026-06-28T16:27:19.797984,1.00271838,.00006891,0.0117,356.8645,30.4825,80.7691,0,U,40874,999,3975,0,-.274E-5,0
INTELSAT 31 (IS-31),2016-035A,2026-06-29T07:45:14.671008,1.00272183,.0000531,0.0216,276.6007,352.7698,29.2974,0,U,41581,999,3680,0,-.14E-5,0
INTELSAT 36 (IS-36),2016-053A,2026-06-29T11:01:34.509216,1.00269105,.000227,0.0108,9.8164,343.4899,158.1366,0,U,41747,999,3608,0,-.13E-6,0
INTELSAT 32E (IS-32E),2017-007B,2026-06-29T12:12:28.636992,1.00268307,.0000889,0.0243,13.6582,344.8527,59.0307,0,U,41945,999,3434,0,0,0
INTELSAT 35E (IS-35E),2017-041A,2026-06-29T12:14:50.911008,1.00268005,.0002383,0.0224,12.9091,87.0965,326.8023,0,U,42818,999,3293,0,0,0
INTELSAT 37E (IS-37E),2017-059A,2026-06-29T10:36:57.369024,1.00268749,.0002918,0.0245,22.4309,79.1169,317.2147,0,U,42950,999,3218,0,0,0
AZERSPACE 2 (IS-38),2018-074A,2026-06-29T12:37:39.340128,1.00269730,.0001686,0.0253,18.5614,81.5750,51.9960,0,U,43632,999,2857,0,0,0
HORIZONS-3E,2018-074B,2026-06-29T12:13:38.481888,1.00270868,.000044,0.0056,247.6549,33.6189,348.7386,0,U,43633,999,2846,0,-.19E-6,0
AT&T T-16,2019-034A,2026-06-29T07:45:14.671008,1.00268897,.0000404,0.0131,53.4207,280.1644,319.2766,0,U,44333,999,2575,0,-.104E-5,0
INTELSAT 39 (IS-39),2019-049B,2026-06-29T05:51:39.891744,1.00261592,.0001425,0.0247,15.7023,340.6402,70.8522,0,U,44476,999,2524,0,0,0
GALAXY 30 (G-30),2020-056C,2026-06-29T11:33:38.561184,1.00272508,.0002274,0.0189,20.1116,74.9517,230.8958,0,U,46114,999,2141,0,.48E-6,0
GALAXY 33 (G-33),2022-128A,2026-06-29T11:41:38.747328,1.00272442,.0002087,0.0148,1.9022,93.4014,224.6766,0,U,54026,999,1386,0,.9E-6,0
GALAXY 34 (G-34),2022-128B,2026-06-29T11:33:38.561184,1.00270902,.0001758,0.0270,6.1742,99.8066,215.9922,0,U,54027,999,1403,0,0,0
GALAXY 31 (G-31),2022-153A,2026-06-29T11:50:15.768384,1.00270323,.0001637,0.0243,47.0206,49.4706,237.6440,0,U,54243,999,725,0,0,0
GALAXY 32 (G-32),2022-153B,2026-06-29T06:50:27.093120,1.00277877,.0002394,0.0113,16.6707,35.5222,236.7920,0,U,54244,999,1326,0,-.164E-5,0
GALAXY 35 (G-35),2022-170A,2026-06-29T11:58:07.514112,1.00268939,.0002213,0.0226,38.6975,59.5522,265.7484,0,U,54741,999,1301,0,0,0
GALAXY 36 (G-36),2022-170B,2026-06-29T11:59:22.395264,1.00271185,.0002907,0.0111,312.5732,139.2890,276.5610,0,U,54742,999,1289,0,-.174E-5,0
GALAXY 37 (G-37),2023-112A,2026-06-29T08:09:38.712960,1.00272607,.000227,0.0214,64.9923,31.3346,176.5117,0,U,57493,999,1066,0,.59E-6,0
